ONEWEB-0369             
1 49295U 21090S   23248.00948384 -.00000047  00000+0 -14903-3 0  9998
2 49295  87.9273 147.2008 0001878  81.1765 278.9581 13.19723408 93674
ONEWEB-0370             
1 49296U 21090T   23247.36436524  .00000035  00000+0  54324-4 0  9992
2 49296  87.9191 116.9006 0001760  77.9653 282.1677 13.20772413 95648
ONEWEB-0371             
1 49297U 21090U   23247.48666526  .00000005  00000+0 -20947-4 0  9995
2 49297  87.9275 147.2931 0001901  78.0842 282.0504 13.19728252 92358
ONEWEB-0372             
1 49298U 21090V   23247.20232147  .00000060  00000+0  11622-3 0  9993
2 49298  87.9190 116.9288 0002152  84.6497 275.4882 13.20769518 95597
ONEWEB-0373             
1 49299U 21090W   23247.91147849  .00000105  00000+0  22641-3 0  9999
2 49299  87.9269 116.7354 0001461  88.8608 271.2692 13.20769901 98175
ONEWEB-0374             
1 49300U 21090X   23248.09881444 -.00000108  00000+0 -32458-3 0  9990
2 49300  87.9016 131.9752 0001793  81.0706 279.0626 13.14504001 95363
ONEWEB-0375             
1 49301U 21090Y   23247.36856356  .00000054  00000+0  10058-3 0  9994
2 49301  87.9189 116.9023 0001114  61.6935 298.4311 13.20773436 96302
ONEWEB-0376             
1 49302U 21090Z   23247.25762509 -.00000014  00000+0 -66825-4 0  9991
2 49302  87.9278 147.3552 0002063  84.2984 275.8384 13.19728293 92322
